STARLINK-30555          
1 58040U 23156N   26068.49509976 -.00000788  00000+0 -14476-4 0  9995
2 58040  53.1602 169.0427 0001039  79.1204 280.9914 15.30193734135009
XCUBE-1                 
1 62400U 24247Z   26068.48297321  .00009773  00000+0  36224-3 0  9994
2 62400  44.9938 117.7807 0005235 331.1499  28.9094 15.27910558 67702
