[{"OBJECT_NAME":"STARLINK-30555","OBJECT_ID":"2023-156N","EPOCH":"2026-03-09T11:52:56.619264","MEAN_MOTION":15.30193734,"ECCENTRICITY":0.00010395,"INCLINATION":53.1602,"RA_OF_ASC_NODE":169.0427,"ARG_OF_PERICENTER":79.1204,"MEAN_ANOMALY":280.9914,"EPHEMERIS_TYPE":0,"CLASSIFICATION_TYPE":"U","NORAD_CAT_ID":58040,"ELEMENT_SET_NO":999,"REV_AT_EPOCH":13500,"BSTAR":-1.4475732e-5,"MEAN_MOTION_DOT":-7.88e-6,"MEAN_MOTION_DDOT":0},{"OBJECT_NAME":"XCUBE-1","OBJECT_ID":"2024-247Z","EPOCH":"2026-03-09T11:35:28.885344","MEAN_MOTION":15.27910558,"ECCENTRICITY":0.00052355,"INCLINATION":44.9938,"RA_OF_ASC_NODE":117.7807,"ARG_OF_PERICENTER":331.1499,"MEAN_ANOMALY":28.9094,"EPHEMERIS_TYPE":0,"CLASSIFICATION_TYPE":"U","NORAD_CAT_ID":62400,"ELEMENT_SET_NO":999,"REV_AT_EPOCH":6770,"BSTAR":0.00036224252,"MEAN_MOTION_DOT":9.773e-5,"MEAN_MOTION_DDOT":0}]
